ONEWEB-0363             
1 49289U 21090L   25292.33378284  .00000102  00000+0  21895-3 0  9992
2 49289  87.9208 322.4723 0001629  86.2029 273.9291 13.20774009198516
ONEWEB-0364             
1 49290U 21090M   25292.14440757  .00000063  00000+0  12204-3 0  9998
2 49290  87.9207 322.5355 0001722  92.4017 267.7314 13.20770741199628
ONEWEB-0365             
1 49291U 21090N   25292.16512246  .00000010  00000+0 -72591-5 0  9994
2 49291  87.9268 352.8962 0001904 102.2211 257.9135 13.19724925194633
ONEWEB-0366             
1 49292U 21090P   25292.14251461  .00000000  00000+0 -34097-4 0  9999
2 49292  87.9035 337.7385 0001796  95.0727 265.0608 13.14502336195896
ONEWEB-0367             
1 49293U 21090Q   25292.33222506  .00000125  00000+0  27452-3 0  9992
2 49293  87.9210 322.4691 0002051  97.5763 262.5604 13.20770543198036
ONEWEB-0368             
1 49294U 21090R   25292.15387718  .00000013  00000+0  32969-6 0  9998
2 49294  87.9207 322.5390 0001173 111.3919 248.7340 13.20771354199161
ONEWEB-0369             
1 49295U 21090S   25292.23619414 -.00000013  00000+0 -63961-4 0  9995
2 49295  87.9261 352.9133 0001863 101.9133 258.2208 13.19724398194633
ONEWEB-0370             
1 49296U 21090T   25292.11442572  .00000170  00000+0  38630-3 0  9998
2 49296  87.9210 322.5204 0002199  92.5744 267.5641 13.20770983198042
